{
 "generated_at": "2026-07-17T07:16:58Z",
 "sources": [
  {
   "name": "CelesTrak",
   "url": "https://celestrak.org/NORAD/elements/",
   "license": "frei verfügbar; Attribution. Ursprünglich USSPACECOM/Space-Track."
  },
  {
   "name": "GCAT (J. McDowell, planet4589.org)",
   "url": "https://planet4589.org/space/gcat/",
   "license": "CC-BY 4.0"
  }
 ],
 "satellites": [
  {
   "norad": 36036,
   "name": "SMOS",
   "intl": "2009-059A",
   "group": "resource",
   "gcat": {
    "class": "C",
    "category": "EOSCI",
    "owner": "ESA",
    "state": "I-ESA"
   },
   "omm": {
    "OBJECT_NAME": "SMOS",
    "OBJECT_ID": "2009-059A",
    "EPOCH": "2026-07-16T12:24:16.246080",
    "MEAN_MOTION": 14.39736468,
    "ECCENTRICITY": 0.0001164,
    "INCLINATION": 98.4429,
    "RA_OF_ASC_NODE": 24.422,
    "ARG_OF_PERICENTER": 97.4594,
    "MEAN_ANOMALY": 262.6727,
    "EPHEMERIS_TYPE": 0,
    "CLASSIFICATION_TYPE": "U",
    "NORAD_CAT_ID": 36036,
    "ELEMENT_SET_NO": 999,
    "REV_AT_EPOCH": 87767,
    "BSTAR": 0.000049666,
    "MEAN_MOTION_DOT": 0.00000112,
    "MEAN_MOTION_DDOT": 0
   }
  },
  {
   "norad": 38755,
   "name": "SPOT 6",
   "intl": "2012-047A",
   "group": "resource",
   "gcat": {
    "class": "B",
    "category": "IMG",
    "owner": "SPOT",
    "state": "F"
   },
   "omm": {
    "OBJECT_NAME": "SPOT 6",
    "OBJECT_ID": "2012-047A",
    "EPOCH": "2026-07-16T20:00:59.379840",
    "MEAN_MOTION": 14.58538789,
    "ECCENTRICITY": 0.0001116,
    "INCLINATION": 98.2109,
    "RA_OF_ASC_NODE": 264.7936,
    "ARG_OF_PERICENTER": 86.9603,
    "MEAN_ANOMALY": 273.1724,
    "EPHEMERIS_TYPE": 0,
    "CLASSIFICATION_TYPE": "U",
    "NORAD_CAT_ID": 38755,
    "ELEMENT_SET_NO": 999,
    "REV_AT_EPOCH": 73737,
    "BSTAR": 0.0000046094,
    "MEAN_MOTION_DOT": -2.4e-7,
    "MEAN_MOTION_DDOT": 0
   }
  },
  {
   "norad": 40053,
   "name": "SPOT 7",
   "intl": "2014-034A",
   "group": "resource",
   "gcat": {
    "class": null,
    "category": null,
    "owner": null,
    "state": null
   },
   "omm": {
    "OBJECT_NAME": "SPOT 7",
    "OBJECT_ID": "2014-034A",
    "EPOCH": "2026-07-16T20:05:23.193600",
    "MEAN_MOTION": 14.60981533,
    "ECCENTRICITY": 0.0001587,
    "INCLINATION": 98.0615,
    "RA_OF_ASC_NODE": 259.5625,
    "ARG_OF_PERICENTER": 94.2421,
    "MEAN_ANOMALY": 265.8961,
    "EPHEMERIS_TYPE": 0,
    "CLASSIFICATION_TYPE": "U",
    "NORAD_CAT_ID": 40053,
    "ELEMENT_SET_NO": 999,
    "REV_AT_EPOCH": 64146,
    "BSTAR": 0.00004087,
    "MEAN_MOTION_DOT": 0.00000155,
    "MEAN_MOTION_DDOT": 0
   }
  },
  {
   "norad": 37841,
   "name": "SRMSAT",
   "intl": "2011-058D",
   "group": "resource",
   "gcat": {
    "class": "A",
    "category": "TECH",
    "owner": "SRMU",
    "state": "IN"
   },
   "omm": {
    "OBJECT_NAME": "SRMSAT",
    "OBJECT_ID": "2011-058D",
    "EPOCH": "2026-07-16T12:02:44.649024",
    "MEAN_MOTION": 14.11581255,
    "ECCENTRICITY": 0.0011714,
    "INCLINATION": 19.9708,
    "RA_OF_ASC_NODE": 242.037,
    "ARG_OF_PERICENTER": 165.5426,
    "MEAN_ANOMALY": 335.9764,
    "EPHEMERIS_TYPE": 0,
    "CLASSIFICATION_TYPE": "U",
    "NORAD_CAT_ID": 37841,
    "ELEMENT_SET_NO": 999,
    "REV_AT_EPOCH": 76196,
    "BSTAR": 0.000034086,
    "MEAN_MOTION_DOT": 0.00000328,
    "MEAN_MOTION_DDOT": 0
   }
  },
  {
   "norad": 53815,
   "name": "STRIX-1",
   "intl": "2022-113A",
   "group": "sar",
   "gcat": {
    "class": "B",
    "category": "IMG-R",
    "owner": "SYNSP",
    "state": "J"
   },
   "omm": {
    "OBJECT_NAME": "STRIX-1",
    "OBJECT_ID": "2022-113A",
    "EPOCH": "2026-07-16T20:53:07.778688",
    "MEAN_MOTION": 15.41051033,
    "ECCENTRICITY": 0.0005547,
    "INCLINATION": 97.4474,
    "RA_OF_ASC_NODE": 260.4478,
    "ARG_OF_PERICENTER": 127.6691,
    "MEAN_ANOMALY": 232.5059,
    "EPHEMERIS_TYPE": 0,
    "CLASSIFICATION_TYPE": "U",
    "NORAD_CAT_ID": 53815,
    "ELEMENT_SET_NO": 999,
    "REV_AT_EPOCH": 21201,
    "BSTAR": 0.00036309,
    "MEAN_MOTION_DOT": 0.00014928,
    "MEAN_MOTION_DDOT": 0
   }
  },
  {
   "norad": 62406,
   "name": "STRIX-2",
   "intl": "2024-248A",
   "group": "sar",
   "gcat": {
    "class": "B",
    "category": "IMG-R",
    "owner": "SYNSP",
    "state": "J"
   },
   "omm": {
    "OBJECT_NAME": "STRIX-2",
    "OBJECT_ID": "2024-248A",
    "EPOCH": "2026-07-16T20:17:23.330688",
    "MEAN_MOTION": 15.09199511,
    "ECCENTRICITY": 0.0013817,
    "INCLINATION": 97.63,
    "RA_OF_ASC_NODE": 153.3215,
    "ARG_OF_PERICENTER": 229.4806,
    "MEAN_ANOMALY": 130.522,
    "EPHEMERIS_TYPE": 0,
    "CLASSIFICATION_TYPE": "U",
    "NORAD_CAT_ID": 62406,
    "ELEMENT_SET_NO": 999,
    "REV_AT_EPOCH": 8606,
    "BSTAR": 0.00015805,
    "MEAN_MOTION_DOT": 0.00002452,
    "MEAN_MOTION_DDOT": 0
   }
  },
  {
   "norad": 59224,
   "name": "STRIX-3",
   "intl": "2024-047A",
   "group": "sar",
   "gcat": {
    "class": "B",
    "category": "IMG-R",
    "owner": "SYNSP",
    "state": "J"
   },
   "omm": {
    "OBJECT_NAME": "STRIX-3",
    "OBJECT_ID": "2024-047A",
    "EPOCH": "2026-07-16T21:01:06.604032",
    "MEAN_MOTION": 15.19826911,
    "ECCENTRICITY": 0.0011791,
    "INCLINATION": 97.6638,
    "RA_OF_ASC_NODE": 174.0011,
    "ARG_OF_PERICENTER": 328.6204,
    "MEAN_ANOMALY": 31.4325,
    "EPHEMERIS_TYPE": 0,
    "CLASSIFICATION_TYPE": "U",
    "NORAD_CAT_ID": 59224,
    "ELEMENT_SET_NO": 999,
    "REV_AT_EPOCH": 12925,
    "BSTAR": 0.0002352,
    "MEAN_MOTION_DOT": 0.00004977,
    "MEAN_MOTION_DDOT": 0
   }
  },
  {
   "norad": 60352,
   "name": "STRIX-4",
   "intl": "2024-137A",
   "group": "sar",
   "gcat": {
    "class": "B",
    "category": "IMG-R",
    "owner": "SYNSP",
    "state": "J"
   },
   "omm": {
    "OBJECT_NAME": "STRIX-4",
    "OBJECT_ID": "2024-137A",
    "EPOCH": "2026-07-16T20:46:10.000128",
    "MEAN_MOTION": 15.33348802,
    "ECCENTRICITY": 0.0016303,
    "INCLINATION": 43.0151,
    "RA_OF_ASC_NODE": 116.0514,
    "ARG_OF_PERICENTER": 143.2096,
    "MEAN_ANOMALY": 216.988,
    "EPHEMERIS_TYPE": 0,
    "CLASSIFICATION_TYPE": "U",
    "NORAD_CAT_ID": 60352,
    "ELEMENT_SET_NO": 999,
    "REV_AT_EPOCH": 10857,
    "BSTAR": 0.00032624,
    "MEAN_MOTION_DOT": 0.00010512,
    "MEAN_MOTION_DDOT": 0
   }
  },
  {
   "norad": 65971,
   "name": "STRIX-5",
   "intl": "2025-229A",
   "group": "sar",
   "gcat": {
    "class": "B",
    "category": "IMG-R",
    "owner": "SYNSP",
    "state": "J"
   },
   "omm": {
    "OBJECT_NAME": "STRIX-5",
    "OBJECT_ID": "2025-229A",
    "EPOCH": "2026-07-16T12:16:41.035584",
    "MEAN_MOTION": 15.04594263,
    "ECCENTRICITY": 0.0037987,
    "INCLINATION": 41.9275,
    "RA_OF_ASC_NODE": 124.7654,
    "ARG_OF_PERICENTER": 245.862,
    "MEAN_ANOMALY": 113.8231,
    "EPHEMERIS_TYPE": 0,
    "CLASSIFICATION_TYPE": "U",
    "NORAD_CAT_ID": 65971,
    "ELEMENT_SET_NO": 999,
    "REV_AT_EPOCH": 4139,
    "BSTAR": 0.00013399,
    "MEAN_MOTION_DOT": 0.00001745,
    "MEAN_MOTION_DDOT": 0
   }
  },
  {
   "norad": 68291,
   "name": "STRIX-6",
   "intl": "2026-056A",
   "group": "sar",
   "gcat": {
    "class": "B",
    "category": "IMG-R",
    "owner": "SYNSP",
    "state": "J"
   },
   "omm": {
    "OBJECT_NAME": "STRIX-6",
    "OBJECT_ID": "2026-056A",
    "EPOCH": "2026-07-16T10:26:08.093760",
    "MEAN_MOTION": 15.00330126,
    "ECCENTRICITY": 0.0016624,
    "INCLINATION": 50.2825,
    "RA_OF_ASC_NODE": 211.5207,
    "ARG_OF_PERICENTER": 355.9365,
    "MEAN_ANOMALY": 4.1447,
    "EPHEMERIS_TYPE": 0,
    "CLASSIFICATION_TYPE": "U",
    "NORAD_CAT_ID": 68291,
    "ELEMENT_SET_NO": 999,
    "REV_AT_EPOCH": 1766,
    "BSTAR": 0.000091207,
    "MEAN_MOTION_DOT": 0.00000891,
    "MEAN_MOTION_DDOT": 0
   }
  }
 ]
}
